{
  "type": "FeatureCollection",
  "features": [
    {
      "type": "Feature",
      "properties": {
        "norad_id": 66653,
        "name": "2025-274D",
        "group": "last-30-days",
        "lat": 17.987683640469605,
        "lon": 101.37677259296122,
        "alt_km": 590.0852974348945,
        "timestamp": "2025-12-17T17:50:17.973391+00:00",
        "meta_object_name": "2025-274D",
        "meta_object_id": "2025-274D",
        "meta_epoch": "2025-12-17T07:27:24.498144",
        "meta_mean_motion": 14.91929407,
        "meta_eccentricity": 0.00113118,
        "meta_inclination": 97.7395,
        "meta_ra_of_asc_node": 278.4212,
        "meta_arg_of_pericenter": 236.5537,
        "meta_mean_anomaly": 123.46,
        "meta_ephemeris_type": 0,
        "meta_classification_type": "U",
        "meta_norad_cat_id": 66653,
        "meta_element_set_no": 999,
        "meta_rev_at_epoch": 308,
        "meta_bstar": 0.0001380376,
        "meta_mean_motion_dot": 1.342e-05,
        "meta_mean_motion_ddot": 0,
        "tle_line1": "1 66653U 25274D   25351.31070021  .00001342  00000+0  13804-3 0  9994",
        "tle_line2": "2 66653  97.7395 278.4212 0011311 236.5537 123.4600 14.91929407  3085"
      },
      "geometry": {
        "type": "Point",
        "coordinates": [
          101.37677259296122,
          17.987683640469605
        ]
      }
    },
    {
      "type": "Feature",
      "properties": {
        "norad_id": 66654,
        "name": "JACK E",
        "group": "last-30-days",
        "lat": 5.201725762149716,
        "lon": 99.56202021031612,
        "alt_km": 589.8538436782219,
        "timestamp": "2025-12-17T17:50:17.973403+00:00",
        "meta_object_name": "JACK E",
        "meta_object_id": "2025-274E",
        "meta_epoch": "2025-12-17T05:47:27.284928",
        "meta_mean_motion": 14.9210972,
        "meta_eccentricity": 0.0011849,
        "meta_inclination": 97.7399,
        "meta_ra_of_asc_node": 278.3595,
        "meta_arg_of_pericenter": 238.6738,
        "meta_mean_anomaly": 121.3322,
        "meta_ephemeris_type": 0,
        "meta_classification_type": "U",
        "meta_norad_cat_id": 66654,
        "meta_element_set_no": 999,
        "meta_rev_at_epoch": 307,
        "meta_bstar": 0.00018318685,
        "meta_mean_motion_dot": 1.808e-05,
        "meta_mean_motion_ddot": 0,
        "tle_line1": "1 66654U 25274E   25351.24128802  .00001808  00000+0  18319-3 0  9991",
        "tle_line2": "2 66654  97.7399 278.3595 0011849 238.6738 121.3322 14.92109720  3071"
      },
      "geometry": {
        "type": "Point",
        "coordinates": [
          99.56202021031612,
          5.201725762149716
        ]
      }
    },
    {
      "type": "Feature",
      "properties": {
        "norad_id": 66655,
        "name": "2025-274F",
        "group": "last-30-days",
        "lat": 18.552083426342644,
        "lon": 101.45721641153577,
        "alt_km": 598.0183061827775,
        "timestamp": "2025-12-17T17:50:17.973413+00:00",
        "meta_object_name": "2025-274F",
        "meta_object_id": "2025-274F",
        "meta_epoch": "2025-12-16T18:34:17.228064",
        "meta_mean_motion": 14.91167242,
        "meta_eccentricity": 0.00052999,
        "meta_inclination": 97.7319,
        "meta_ra_of_asc_node": 277.8939,
        "meta_arg_of_pericenter": 8.16,
        "meta_mean_anomaly": 351.9703,
        "meta_ephemeris_type": 0,
        "meta_classification_type": "U",
        "meta_norad_cat_id": 66655,
        "meta_element_set_no": 999,
        "meta_rev_at_epoch": 300,
        "meta_bstar": -1.279618e-06,
        "meta_mean_motion_dot": -6.8e-07,
        "meta_mean_motion_ddot": 0,
        "tle_line1": "1 66655U 25274F   25350.77381051 -.00000068  00000+0 -12796-5 0  9990",
        "tle_line2": "2 66655  97.7319 277.8939 0005299   8.1600 351.9703 14.91167242  3009"
      },
      "geometry": {
        "type": "Point",
        "coordinates": [
          101.45721641153577,
          18.552083426342644
        ]
      }
    },
    {
      "type": "Feature",
      "properties": {
        "norad_id": 66656,
        "name": "2025-274G",
        "group": "last-30-days",
        "lat": -8.763042435294096,
        "lon": 97.65635729300129,
        "alt_km": 589.2582317290444,
        "timestamp": "2025-12-17T17:50:17.973426+00:00",
        "meta_object_name": "2025-274G",
        "meta_object_id": "2025-274G",
        "meta_epoch": "2025-12-17T07:20:19.483584",
        "meta_mean_motion": 14.92303559,
        "meta_eccentricity": 0.0012452,
        "meta_inclination": 97.7399,
        "meta_ra_of_asc_node": 278.4278,
        "meta_arg_of_pericenter": 240.0435,
        "meta_mean_anomaly": 119.9549,
        "meta_ephemeris_type": 0,
        "meta_classification_type": "U",
        "meta_norad_cat_id": 66656,
        "meta_element_set_no": 999,
        "meta_rev_at_epoch": 308,
        "meta_bstar": 0.00020739138,
        "meta_mean_motion_dot": 2.065e-05,
        "meta_mean_motion_ddot": 0,
        "tle_line1": "1 66656U 25274G   25351.30578106  .00002065  00000+0  20739-3 0  9991",
        "tle_line2": "2 66656  97.7399 278.4278 0012452 240.0435 119.9549 14.92303559  3085"
      },
      "geometry": {
        "type": "Point",
        "coordinates": [
          97.65635729300129,
          -8.763042435294096
        ]
      }
    },
    {
      "type": "Feature",
      "properties": {
        "norad_id": 66657,
        "name": "SPIRONE",
        "group": "last-30-days",
        "lat": -22.18815330577307,
        "lon": 95.68295330049949,
        "alt_km": 591.3363092969294,
        "timestamp": "2025-12-17T17:50:17.973436+00:00",
        "meta_object_name": "SPIRONE",
        "meta_object_id": "2025-274H",
        "meta_epoch": "2025-12-17T07:16:45.967584",
        "meta_mean_motion": 14.92482598,
        "meta_eccentricity": 0.00106558,
        "meta_inclination": 97.7396,
        "meta_ra_of_asc_node": 278.4303,
        "meta_arg_of_pericenter": 258.6573,
        "meta_mean_anomaly": 101.3449,
        "meta_ephemeris_type": 0,
        "meta_classification_type": "U",
        "meta_norad_cat_id": 66657,
        "meta_element_set_no": 999,
        "meta_rev_at_epoch": 308,
        "meta_bstar": 0.0002135548,
        "meta_mean_motion_dot": 2.137e-05,
        "meta_mean_motion_ddot": 0,
        "tle_line1": "1 66657U 25274H   25351.30330981  .00002137  00000+0  21355-3 0  9994",
        "tle_line2": "2 66657  97.7396 278.4303 0010655 258.6573 101.3449 14.92482598  3088"
      },
      "geometry": {
        "type": "Point",
        "coordinates": [
          95.68295330049949,
          -22.18815330577307
        ]
      }
    },
    {
      "type": "Feature",
      "properties": {
        "norad_id": 66658,
        "name": "2025-274J",
        "group": "last-30-days",
        "lat": -35.137054414644545,
        "lon": 93.37605022279578,
        "alt_km": 590.4599342413276,
        "timestamp": "2025-12-17T17:50:17.973446+00:00",
        "meta_object_name": "2025-274J",
        "meta_object_id": "2025-274J",
        "meta_epoch": "2025-12-17T07:13:19.297056",
        "meta_mean_motion": 14.92652844,
        "meta_eccentricity": 0.00111648,
        "meta_inclination": 97.7395,
        "meta_ra_of_asc_node": 278.4336,
        "meta_arg_of_pericenter": 261.8636,
        "meta_mean_anomaly": 98.1317,
        "meta_ephemeris_type": 0,
        "meta_classification_type": "U",
        "meta_norad_cat_id": 66658,
        "meta_element_set_no": 999,
        "meta_rev_at_epoch": 308,
        "meta_bstar": 0.00021924381,
        "meta_mean_motion_dot": 2.205e-05,
        "meta_mean_motion_ddot": 0,
        "tle_line1": "1 66658U 25274J   25351.30091779  .00002205  00000+0  21924-3 0  9992",
        "tle_line2": "2 66658  97.7395 278.4336 0011164 261.8636  98.1317 14.92652844  3086"
      },
      "geometry": {
        "type": "Point",
        "coordinates": [
          93.37605022279578,
          -35.137054414644545
        ]
      }
    },
    {
      "type": "Feature",
      "properties": {
        "norad_id": 66659,
        "name": "JACK K",
        "group": "last-30-days",
        "lat": -48.935161569657026,
        "lon": 89.89437261898517,
        "alt_km": 588.9796888679566,
        "timestamp": "2025-12-17T17:50:17.973456+00:00",
        "meta_object_name": "JACK K",
        "meta_object_id": "2025-274K",
        "meta_epoch": "2025-12-17T07:09:38.065536",
        "meta_mean_motion": 14.92837552,
        "meta_eccentricity": 0.00118894,
        "meta_inclination": 97.7398,
        "meta_ra_of_asc_node": 278.4374,
        "meta_arg_of_pericenter": 263.3223,
        "meta_mean_anomaly": 96.6643,
        "meta_ephemeris_type": 0,
        "meta_classification_type": "U",
        "meta_norad_cat_id": 66659,
        "meta_element_set_no": 999,
        "meta_rev_at_epoch": 308,
        "meta_bstar": 0.00023154316,
        "meta_mean_motion_dot": 2.343e-05,
        "meta_mean_motion_ddot": 0,
        "tle_line1": "1 66659U 25274K   25351.29835724  .00002343  00000+0  23154-3 0  9997",
        "tle_line2": "2 66659  97.7398 278.4374 0011889 263.3223  96.6643 14.92837552  3081"
      },
      "geometry": {
        "type": "Point",
        "coordinates": [
          89.89437261898517,
          -48.935161569657026
        ]
      }
    }
  ]
}